{
  "type": "FeatureCollection",
  "features": [
    {
      "type": "Feature",
      "properties": {
        "norad_id": 35993,
        "name": "COSMOS 2251 DEB",
        "group": "cosmos-2251-debris",
        "lat": 24.734197845943477,
        "lon": -35.99076901812239,
        "alt_km": 684.2559837231511,
        "timestamp": "2025-12-21T05:44:51.984342+00:00",
        "meta_object_name": "COSMOS 2251 DEB",
        "meta_object_id": "1993-036AWK",
        "meta_epoch": "2025-12-17T04:57:26.962848",
        "meta_mean_motion": 14.65334596,
        "meta_eccentricity": 0.00286802,
        "meta_inclination": 74.0146,
        "meta_ra_of_asc_node": 324.1891,
        "meta_arg_of_pericenter": 152.382,
        "meta_mean_anomaly": 207.888,
        "meta_ephemeris_type": 0,
        "meta_classification_type": "U",
        "meta_norad_cat_id": 35993,
        "meta_element_set_no": 999,
        "meta_rev_at_epoch": 60508,
        "meta_bstar": 0.00055537326,
        "meta_mean_motion_dot": 2.986e-05,
        "meta_mean_motion_ddot": 0,
        "tle_line1": "1 35993U 93036AWK 25351.20656207  .00002986  00000+0  55537-3 0  9996",
        "tle_line2": "2 35993  74.0146 324.1891 0028680 152.3820 207.8880 14.65334596605084"
      },
      "geometry": {
        "type": "Point",
        "coordinates": [
          -35.99076901812239,
          24.734197845943477
        ]
      }
    },
    {
      "type": "Feature",
      "properties": {
        "norad_id": 35996,
        "name": "COSMOS 2251 DEB",
        "group": "cosmos-2251-debris",
        "lat": 12.984368905368207,
        "lon": 89.66586771223888,
        "alt_km": 596.3215033801607,
        "timestamp": "2025-12-21T05:44:51.984352+00:00",
        "meta_object_name": "COSMOS 2251 DEB",
        "meta_object_id": "1993-036AWN",
        "meta_epoch": "2025-12-15T22:25:06.327264",
        "meta_mean_motion": 15.09228347,
        "meta_eccentricity": 0.00876626,
        "meta_inclination": 74.0159,
        "meta_ra_of_asc_node": 96.8248,
        "meta_arg_of_pericenter": 187.0066,
        "meta_mean_anomaly": 172.9909,
        "meta_ephemeris_type": 0,
        "meta_classification_type": "U",
        "meta_norad_cat_id": 35996,
        "meta_element_set_no": 999,
        "meta_rev_at_epoch": 72374,
        "meta_bstar": 0.00054952121,
        "meta_mean_motion_dot": 9.536e-05,
        "meta_mean_motion_ddot": 0,
        "tle_line1": "1 35996U 93036AWN 25349.93410101  .00009536  00000+0  54952-3 0  9995",
        "tle_line2": "2 35996  74.0159  96.8248 0087662 187.0066 172.9909 15.09228347723745"
      },
      "geometry": {
        "type": "Point",
        "coordinates": [
          89.66586771223888,
          12.984368905368207
        ]
      }
    },
    {
      "type": "Feature",
      "properties": {
        "norad_id": 35997,
        "name": "COSMOS 2251 DEB",
        "group": "cosmos-2251-debris",
        "lat": 43.277758728334234,
        "lon": -24.32277296421074,
        "alt_km": 721.3213324576309,
        "timestamp": "2025-12-21T05:44:51.984362+00:00",
        "meta_object_name": "COSMOS 2251 DEB",
        "meta_object_id": "1993-036AWP",
        "meta_epoch": "2025-12-19T05:09:14.184000",
        "meta_mean_motion": 14.51343045,
        "meta_eccentricity": 0.0015535,
        "meta_inclination": 74.0424,
        "meta_ra_of_asc_node": 175.1147,
        "meta_arg_of_pericenter": 250.287,
        "meta_mean_anomaly": 109.6616,
        "meta_ephemeris_type": 0,
        "meta_classification_type": "U",
        "meta_norad_cat_id": 35997,
        "meta_element_set_no": 999,
        "meta_rev_at_epoch": 70978,
        "meta_bstar": 0.00045886,
        "meta_mean_motion_dot": 1.803e-05,
        "meta_mean_motion_ddot": 0,
        "tle_line1": "1 35997U 93036AWP 25353.21474750  .00001803  00000+0  45886-3 0  9997",
        "tle_line2": "2 35997  74.0424 175.1147 0015535 250.2870 109.6616 14.51343045709785"
      },
      "geometry": {
        "type": "Point",
        "coordinates": [
          -24.32277296421074,
          43.277758728334234
        ]
      }
    },
    {
      "type": "Feature",
      "properties": {
        "norad_id": 36005,
        "name": "COSMOS 2251 DEB",
        "group": "cosmos-2251-debris",
        "lat": 42.428886708868056,
        "lon": 93.28052189678024,
        "alt_km": 773.4937029222592,
        "timestamp": "2025-12-21T05:44:51.984372+00:00",
        "meta_object_name": "COSMOS 2251 DEB",
        "meta_object_id": "1993-036AWX",
        "meta_epoch": "2025-12-20T16:16:09.286464",
        "meta_mean_motion": 14.47369013,
        "meta_eccentricity": 0.00616894,
        "meta_inclination": 74.0271,
        "meta_ra_of_asc_node": 79.1538,
        "meta_arg_of_pericenter": 214.8629,
        "meta_mean_anomaly": 144.8483,
        "meta_ephemeris_type": 0,
        "meta_classification_type": "U",
        "meta_norad_cat_id": 36005,
        "meta_element_set_no": 999,
        "meta_rev_at_epoch": 87699,
        "meta_bstar": 0.00013338398,
        "meta_mean_motion_dot": 4.72e-06,
        "meta_mean_motion_ddot": 0,
        "tle_line1": "1 36005U 93036AWX 25354.67788526  .00000472  00000+0  13338-3 0  9996",
        "tle_line2": "2 36005  74.0271  79.1538 0061689 214.8629 144.8483 14.47369013876991"
      },
      "geometry": {
        "type": "Point",
        "coordinates": [
          93.28052189678024,
          42.428886708868056
        ]
      }
    },
    {
      "type": "Feature",
      "properties": {
        "norad_id": 36045,
        "name": "COSMOS 2251 DEB",
        "group": "cosmos-2251-debris",
        "lat": 65.68529359697584,
        "lon": 82.49911830265505,
        "alt_km": 622.0566873884309,
        "timestamp": "2025-12-21T05:44:51.984381+00:00",
        "meta_object_name": "COSMOS 2251 DEB",
        "meta_object_id": "1993-036AXG",
        "meta_epoch": "2025-12-17T21:23:36.435552",
        "meta_mean_motion": 14.69971183,
        "meta_eccentricity": 0.0048002,
        "meta_inclination": 73.7643,
        "meta_ra_of_asc_node": 48.9349,
        "meta_arg_of_pericenter": 60.9199,
        "meta_mean_anomaly": 299.6765,
        "meta_ephemeris_type": 0,
        "meta_classification_type": "U",
        "meta_norad_cat_id": 36045,
        "meta_element_set_no": 999,
        "meta_rev_at_epoch": 8464,
        "meta_bstar": 0.0014164853,
        "meta_mean_motion_dot": 8.618e-05,
        "meta_mean_motion_ddot": 0,
        "tle_line1": "1 36045U 93036AXG 25351.89139393  .00008618  00000+0  14165-2 0  9991",
        "tle_line2": "2 36045  73.7643  48.9349 0048002  60.9199 299.6765 14.69971183 84640"
      },
      "geometry": {
        "type": "Point",
        "coordinates": [
          82.49911830265505,
          65.68529359697584
        ]
      }
    },
    {
      "type": "Feature",
      "properties": {
        "norad_id": 36046,
        "name": "COSMOS 2251 DEB",
        "group": "cosmos-2251-debris",
        "lat": -10.599564739627665,
        "lon": -102.9499244122311,
        "alt_km": 657.1724685821473,
        "timestamp": "2025-12-21T05:44:51.984391+00:00",
        "meta_object_name": "COSMOS 2251 DEB",
        "meta_object_id": "1993-036AXH",
        "meta_epoch": "2025-12-16T01:21:09.149760",
        "meta_mean_motion": 14.65292015,
        "meta_eccentricity": 0.00556784,
        "meta_inclination": 74.0168,
        "meta_ra_of_asc_node": 270.107,
        "meta_arg_of_pericenter": 55.1264,
        "meta_mean_anomaly": 324.2312,
        "meta_ephemeris_type": 0,
        "meta_classification_type": "U",
        "meta_norad_cat_id": 36046,
        "meta_element_set_no": 999,
        "meta_rev_at_epoch": 64052,
        "meta_bstar": 0.00042488876,
        "meta_mean_motion_dot": 2.313e-05,
        "meta_mean_motion_ddot": 0,
        "tle_line1": "1 36046U 93036AXH 25350.05635590  .00002313  00000+0  42489-3 0  9996",
        "tle_line2": "2 36046  74.0168 270.1070 0055678  55.1264 324.2312 14.65292015640527"
      },
      "geometry": {
        "type": "Point",
        "coordinates": [
          -102.9499244122311,
          -10.599564739627665
        ]
      }
    },
    {
      "type": "Feature",
      "properties": {
        "norad_id": 36047,
        "name": "COSMOS 2251 DEB",
        "group": "cosmos-2251-debris",
        "lat": 33.36718064882777,
        "lon": 126.119947745492,
        "alt_km": 581.3035586531378,
        "timestamp": "2025-12-21T05:44:51.984402+00:00",
        "meta_object_name": "COSMOS 2251 DEB",
        "meta_object_id": "1993-036AXJ",
        "meta_epoch": "2025-12-18T04:53:35.477376",
        "meta_mean_motion": 14.9621864,
        "meta_eccentricity": 0.00084577,
        "meta_inclination": 74.0358,
        "meta_ra_of_asc_node": 323.1177,
        "meta_arg_of_pericenter": 350.3843,
        "meta_mean_anomaly": 9.7178,
        "meta_ephemeris_type": 0,
        "meta_classification_type": "U",
        "meta_norad_cat_id": 36047,
        "meta_element_set_no": 999,
        "meta_rev_at_epoch": 66021,
        "meta_bstar": 0.0023104884,
        "meta_mean_motion_dot": 0.00026146,
        "meta_mean_motion_ddot": 0,
        "tle_line1": "1 36047U 93036AXJ 25352.20388284  .00026146  00000+0  23105-2 0  9994",
        "tle_line2": "2 36047  74.0358 323.1177 0008457 350.3843   9.7178 14.96218640660211"
      },
      "geometry": {
        "type": "Point",
        "coordinates": [
          126.119947745492,
          33.36718064882777
        ]
      }
    }
  ]
}